{
    "links": {
        "self": "http://www.neowsapp.com/rest/v1/neo/3343105?api_key=iIulBulltgU6a56xZRHN4H3l9WmuAYTsLGpBGhQ2"
    },
    "id": "3343105",
    "neo_reference_id": "3343105",
    "name": "(2006 SR19)",
    "designation": "2006 SR19",
    "nasa_jpl_url": "http://ssd.jpl.nasa.gov/sbdb.cgi?sstr=3343105",
    "absolute_magnitude_h": 21.9,
    "estimated_diameter": {
        "kilometers": {
            "estimated_diameter_min": 0.1108038821,
            "estimated_diameter_max": 0.2477650126
        },
        "meters": {
            "estimated_diameter_min": 110.8038821264,
            "estimated_diameter_max": 247.7650126055
        },
        "miles": {
            "estimated_diameter_min": 0.068850319,
            "estimated_diameter_max": 0.1539539936
        },
        "feet": {
            "estimated_diameter_min": 363.5298086356,
            "estimated_diameter_max": 812.8773639568
        }
    },
    "is_potentially_hazardous_asteroid": false,
    "close_approach_data": [
        {
            "close_approach_date": "2002-04-18",
            "close_approach_date_full": "2002-Apr-18 16:46",
            "epoch_date_close_approach": 1019148360000,
            "relative_velocity": {
                "kilometers_per_second": "8.4622649631",
                "kilometers_per_hour": "30464.1538669806",
                "miles_per_hour": "18929.2404958469"
            },
            "miss_distance": {
                "astronomical": "0.0605338136",
                "lunar": "23.5476534904",
                "kilometers": "9055729.577537032",
                "miles": "5626969.4334417616"
            },
            "orbiting_body": "Mars"
        },
        {
            "close_approach_date": "2006-10-16",
            "close_approach_date_full": "2006-Oct-16 22:21",
            "epoch_date_close_approach": 1161037260000,
            "relative_velocity": {
                "kilometers_per_second": "3.9155981981",
                "kilometers_per_hour": "14096.153513251",
                "miles_per_hour": "8758.8016093865"
            },
            "miss_distance": {
                "astronomical": "0.2658360582",
                "lunar": "103.4102266398",
                "kilometers": "39768508.075916034",
                "miles": "24711005.0538439092"
            },
            "orbiting_body": "Earth"
        },
        {
            "close_approach_date": "2011-09-13",
            "close_approach_date_full": "2011-Sep-13 19:49",
            "epoch_date_close_approach": 1315943340000,
            "relative_velocity": {
                "kilometers_per_second": "8.4294453985",
                "kilometers_per_hour": "30346.0034344781",
                "miles_per_hour": "18855.8264118289"
            },
            "miss_distance": {
                "astronomical": "0.0767162243",
                "lunar": "29.8426112527",
                "kilometers": "11476583.749722241",
                "miles": "7131218.4630832858"
            },
            "orbiting_body": "Mars"
        },
        {
            "close_approach_date": "2021-02-14",
            "close_approach_date_full": "2021-Feb-14 12:39",
            "epoch_date_close_approach": 1613306340000,
            "relative_velocity": {
                "kilometers_per_second": "9.105718139",
                "kilometers_per_hour": "32780.585300331",
                "miles_per_hour": "20368.5809050862"
            },
            "miss_distance": {
                "astronomical": "0.0475200126",
                "lunar": "18.4852849014",
                "kilometers": "7108892.667333162",
                "miles": "4417261.0723631556"
            },
            "orbiting_body": "Mars"
        }
    ],
    "orbital_data": {
        "orbit_id": "23",
        "orbit_determination_date": "2017-04-06 09:08:06",
        "first_observation_date": "2006-09-19",
        "last_observation_date": "2006-12-12",
        "data_arc_in_days": 84,
        "observations_used": 65,
        "orbit_uncertainty": "6",
        "minimum_orbit_intersection": ".269885",
        "jupiter_tisserand_invariant": "3.073",
        "epoch_osculation": "2459000.5",
        "eccentricity": ".5512427436804741",
        "semi_major_axis": "2.817304293533751",
        "inclination": "2.867976327257854",
        "ascending_node_longitude": "350.6688961924597",
        "orbital_period": "1727.225585317704",
        "perihelion_distance": "1.264285744983426",
        "perihelion_argument": "34.07902996408735",
        "aphelion_distance": "4.370322842084075",
        "perihelion_time": "2459174.373402749918",
        "mean_anomaly": "323.760133290026",
        "mean_motion": ".208426741162349",
        "equinox": "J2000",
        "orbit_class": {
            "orbit_class_type": "AMO",
            "orbit_class_description": "Near-Earth asteroid orbits similar to that of 1221 Amor",
            "orbit_class_range": "1.017 AU < q (perihelion) < 1.3 AU"
        }
    },
    "is_sentry_object": false
}